STARLINK-36580          
1 67546U 26014Q   26049.18972241  .00261148  00000+0  16895-2 0  9998
2 67546  97.2841 293.1599 0001894  72.5921 287.5551 15.75315949  5509
STARLINK-36584          
1 67547U 26014R   26049.25002315 -.00126852  00000+0 -86030-3 0  9996
2 67547  97.2849 293.2630 0001652  95.6878 346.1387 15.75241575  5562
STARLINK-36586          
1 67548U 26014S   26049.22500373  .00190559  00000+0  97237-3 0  9995
2 67548  97.2845 293.2651 0001325  75.0855 285.0560 15.80853040  5517
STARLINK-36564          
1 67549U 26014T   26049.19783777  .00172554  00000+0  11322-2 0  9998
2 67549  97.2837 293.1486 0001645  79.0387 281.1063 15.75237680  5440
STARLINK-36563          
1 67550U 26014U   26049.19360349  .00181921  00000+0  11941-2 0  9991
2 67550  97.2832 293.1529 0001671  89.4040 270.7417 15.75202081  5506
STARLINK-36566          
1 67551U 26014V   26049.19148482  .00236155  00000+0  15403-2 0  9991
2 67551  97.2834 293.1553 0001567 122.1890 237.9528 15.75197679  5490
STARLINK-36567          
1 67552U 26014W   26049.19995381  .00163817  00000+0  10763-2 0  9998
2 67552  97.2844 293.1423 0001632  87.9240 272.2212 15.75231831  5499
STARLINK-36569          
1 67553U 26014X   26049.23737048  .00282559  00000+0  18342-2 0  9994
2 67553  97.2851 293.2438 0002146 109.1584 250.9914 15.75177882  5503
STARLINK-36395          
1 67554U 26014Y   26049.19430990  .00219374  00000+0  14339-2 0  9993
2 67554  97.2845 293.1508 0001710 109.1354 251.0097 15.75194069  5493
STARLINK-36559          
1 67555U 26014Z   26049.19571107  .00195213  00000+0  12840-2 0  9990
2 67555  97.2846 293.1484 0002156  76.5878 283.5627 15.75116561  5491
MR-2                    
1 67556U 26015A   26049.18435101  .00000069  00000+0  85461-4 0  9999
2 67556  88.9964 280.6461 0005040  73.3916 286.7789 13.52686579  3620
MR-1                    
1 67557U 26015B   26049.18483882  .00000071  00000+0  89625-4 0  9998
2 67557  88.9964 280.6463 0005122  72.1770 287.9940 13.52661705  3625
