CCSDS_OMM_VERS = 2.0
CREATION_DATE  = 
ORIGINATOR     = 

OBJECT_NAME    = STARLINK-36580
OBJECT_ID      = 2026-014Q
CENTER_NAME    = EARTH
REF_FRAME      = TEME
TIME_SYSTEM    = UTC
MEAN_ELEMENT_THEORY = SGP/SGP4

EPOCH          = 2026-02-18T04:33:12.016224
MEAN_MOTION    = 15.75315949
ECCENTRICITY   = .00018947
INCLINATION    = 97.2841
RA_OF_ASC_NODE = 293.1599
ARG_OF_PERICENTER = 72.5921
MEAN_ANOMALY   = 287.5551

EPHEMERIS_TYPE = 0
CLASSIFICATION_TYPE = U
NORAD_CAT_ID   = 67546
ELEMENT_SET_NO = 999
REV_AT_EPOCH   = 550
BSTAR          = .16894913E-2
MEAN_MOTION_DOT = .261148E-2
MEAN_MOTION_DDOT = 0

CCSDS_OMM_VERS = 2.0
CREATION_DATE  = 
ORIGINATOR     = 

OBJECT_NAME    = STARLINK-36584
OBJECT_ID      = 2026-014R
CENTER_NAME    = EARTH
REF_FRAME      = TEME
TIME_SYSTEM    = UTC
MEAN_ELEMENT_THEORY = SGP/SGP4

EPOCH          = 2026-02-18T06:00:02.000160
MEAN_MOTION    = 15.75241575
ECCENTRICITY   = .00016527
INCLINATION    = 97.2849
RA_OF_ASC_NODE = 293.2630
ARG_OF_PERICENTER = 95.6878
MEAN_ANOMALY   = 346.1387

EPHEMERIS_TYPE = 0
CLASSIFICATION_TYPE = U
NORAD_CAT_ID   = 67547
ELEMENT_SET_NO = 999
REV_AT_EPOCH   = 556
BSTAR          = -.86029898E-3
MEAN_MOTION_DOT = -.126852E-2
MEAN_MOTION_DDOT = 0

CCSDS_OMM_VERS = 2.0
CREATION_DATE  = 
ORIGINATOR     = 

OBJECT_NAME    = STARLINK-36586
OBJECT_ID      = 2026-014S
CENTER_NAME    = EARTH
REF_FRAME      = TEME
TIME_SYSTEM    = UTC
MEAN_ELEMENT_THEORY = SGP/SGP4

EPOCH          = 2026-02-18T05:24:00.322272
MEAN_MOTION    = 15.80853040
ECCENTRICITY   = .00013252
INCLINATION    = 97.2845
RA_OF_ASC_NODE = 293.2651
ARG_OF_PERICENTER = 75.0855
MEAN_ANOMALY   = 285.0560

EPHEMERIS_TYPE = 0
CLASSIFICATION_TYPE = U
NORAD_CAT_ID   = 67548
ELEMENT_SET_NO = 999
REV_AT_EPOCH   = 551
BSTAR          = .97236784E-3
MEAN_MOTION_DOT = .190559E-2
MEAN_MOTION_DDOT = 0

CCSDS_OMM_VERS = 2.0
CREATION_DATE  = 
ORIGINATOR     = 

OBJECT_NAME    = STARLINK-36564
OBJECT_ID      = 2026-014T
CENTER_NAME    = EARTH
REF_FRAME      = TEME
TIME_SYSTEM    = UTC
MEAN_ELEMENT_THEORY = SGP/SGP4

EPOCH          = 2026-02-18T04:44:53.183328
MEAN_MOTION    = 15.75237680
ECCENTRICITY   = .0001645
INCLINATION    = 97.2837
RA_OF_ASC_NODE = 293.1486
ARG_OF_PERICENTER = 79.0387
MEAN_ANOMALY   = 281.1063

EPHEMERIS_TYPE = 0
CLASSIFICATION_TYPE = U
NORAD_CAT_ID   = 67549
ELEMENT_SET_NO = 999
REV_AT_EPOCH   = 544
BSTAR          = .11321797E-2
MEAN_MOTION_DOT = .172554E-2
MEAN_MOTION_DDOT = 0

CCSDS_OMM_VERS = 2.0
CREATION_DATE  = 
ORIGINATOR     = 

OBJECT_NAME    = STARLINK-36563
OBJECT_ID      = 2026-014U
CENTER_NAME    = EARTH
REF_FRAME      = TEME
TIME_SYSTEM    = UTC
MEAN_ELEMENT_THEORY = SGP/SGP4

EPOCH          = 2026-02-18T04:38:47.341536
MEAN_MOTION    = 15.75202081
ECCENTRICITY   = .00016714
INCLINATION    = 97.2832
RA_OF_ASC_NODE = 293.1529
ARG_OF_PERICENTER = 89.4040
MEAN_ANOMALY   = 270.7417

EPHEMERIS_TYPE = 0
CLASSIFICATION_TYPE = U
NORAD_CAT_ID   = 67550
ELEMENT_SET_NO = 999
REV_AT_EPOCH   = 550
BSTAR          = .11941072E-2
MEAN_MOTION_DOT = .181921E-2
MEAN_MOTION_DDOT = 0

CCSDS_OMM_VERS = 2.0
CREATION_DATE  = 
ORIGINATOR     = 

OBJECT_NAME    = STARLINK-36566
OBJECT_ID      = 2026-014V
CENTER_NAME    = EARTH
REF_FRAME      = TEME
TIME_SYSTEM    = UTC
MEAN_ELEMENT_THEORY = SGP/SGP4

EPOCH          = 2026-02-18T04:35:44.288448
MEAN_MOTION    = 15.75197679
ECCENTRICITY   = .00015676
INCLINATION    = 97.2834
RA_OF_ASC_NODE = 293.1553
ARG_OF_PERICENTER = 122.1890
MEAN_ANOMALY   = 237.9528

EPHEMERIS_TYPE = 0
CLASSIFICATION_TYPE = U
NORAD_CAT_ID   = 67551
ELEMENT_SET_NO = 999
REV_AT_EPOCH   = 549
BSTAR          = .15402541E-2
MEAN_MOTION_DOT = .236155E-2
MEAN_MOTION_DDOT = 0

CCSDS_OMM_VERS = 2.0
CREATION_DATE  = 
ORIGINATOR     = 

OBJECT_NAME    = STARLINK-36567
OBJECT_ID      = 2026-014W
CENTER_NAME    = EARTH
REF_FRAME      = TEME
TIME_SYSTEM    = UTC
MEAN_ELEMENT_THEORY = SGP/SGP4

EPOCH          = 2026-02-18T04:47:56.009184
MEAN_MOTION    = 15.75231831
ECCENTRICITY   = .00016322
INCLINATION    = 97.2844
RA_OF_ASC_NODE = 293.1423
ARG_OF_PERICENTER = 87.9240
MEAN_ANOMALY   = 272.2212

EPHEMERIS_TYPE = 0
CLASSIFICATION_TYPE = U
NORAD_CAT_ID   = 67552
ELEMENT_SET_NO = 999
REV_AT_EPOCH   = 549
BSTAR          = .10762777E-2
MEAN_MOTION_DOT = .163817E-2
MEAN_MOTION_DDOT = 0

CCSDS_OMM_VERS = 2.0
CREATION_DATE  = 
ORIGINATOR     = 

OBJECT_NAME    = STARLINK-36569
OBJECT_ID      = 2026-014X
CENTER_NAME    = EARTH
REF_FRAME      = TEME
TIME_SYSTEM    = UTC
MEAN_ELEMENT_THEORY = SGP/SGP4

EPOCH          = 2026-02-18T05:41:48.809472
MEAN_MOTION    = 15.75177882
ECCENTRICITY   = .00021463
INCLINATION    = 97.2851
RA_OF_ASC_NODE = 293.2438
ARG_OF_PERICENTER = 109.1584
MEAN_ANOMALY   = 250.9914

EPHEMERIS_TYPE = 0
CLASSIFICATION_TYPE = U
NORAD_CAT_ID   = 67553
ELEMENT_SET_NO = 999
REV_AT_EPOCH   = 550
BSTAR          = .18342088E-2
MEAN_MOTION_DOT = .282559E-2
MEAN_MOTION_DDOT = 0

CCSDS_OMM_VERS = 2.0
CREATION_DATE  = 
ORIGINATOR     = 

OBJECT_NAME    = STARLINK-36395
OBJECT_ID      = 2026-014Y
CENTER_NAME    = EARTH
REF_FRAME      = TEME
TIME_SYSTEM    = UTC
MEAN_ELEMENT_THEORY = SGP/SGP4

EPOCH          = 2026-02-18T04:39:48.375360
MEAN_MOTION    = 15.75194069
ECCENTRICITY   = .00017104
INCLINATION    = 97.2845
RA_OF_ASC_NODE = 293.1508
ARG_OF_PERICENTER = 109.1354
MEAN_ANOMALY   = 251.0097

EPHEMERIS_TYPE = 0
CLASSIFICATION_TYPE = U
NORAD_CAT_ID   = 67554
ELEMENT_SET_NO = 999
REV_AT_EPOCH   = 549
BSTAR          = .14339196E-2
MEAN_MOTION_DOT = .219374E-2
MEAN_MOTION_DDOT = 0

CCSDS_OMM_VERS = 2.0
CREATION_DATE  = 
ORIGINATOR     = 

OBJECT_NAME    = STARLINK-36559
OBJECT_ID      = 2026-014Z
CENTER_NAME    = EARTH
REF_FRAME      = TEME
TIME_SYSTEM    = UTC
MEAN_ELEMENT_THEORY = SGP/SGP4

EPOCH          = 2026-02-18T04:41:49.436448
MEAN_MOTION    = 15.75116561
ECCENTRICITY   = .00021564
INCLINATION    = 97.2846
RA_OF_ASC_NODE = 293.1484
ARG_OF_PERICENTER = 76.5878
MEAN_ANOMALY   = 283.5627

EPHEMERIS_TYPE = 0
CLASSIFICATION_TYPE = U
NORAD_CAT_ID   = 67555
ELEMENT_SET_NO = 999
REV_AT_EPOCH   = 549
BSTAR          = .12839889E-2
MEAN_MOTION_DOT = .195213E-2
MEAN_MOTION_DDOT = 0

CCSDS_OMM_VERS = 2.0
CREATION_DATE  = 
ORIGINATOR     = 

OBJECT_NAME    = MR-2
OBJECT_ID      = 2026-015A
CENTER_NAME    = EARTH
REF_FRAME      = TEME
TIME_SYSTEM    = UTC
MEAN_ELEMENT_THEORY = SGP/SGP4

EPOCH          = 2026-02-18T04:25:27.927264
MEAN_MOTION    = 13.52686579
ECCENTRICITY   = .00050409
INCLINATION    = 88.9964
RA_OF_ASC_NODE = 280.6461
ARG_OF_PERICENTER = 73.3916
MEAN_ANOMALY   = 286.7789

EPHEMERIS_TYPE = 0
CLASSIFICATION_TYPE = U
NORAD_CAT_ID   = 67556
ELEMENT_SET_NO = 999
REV_AT_EPOCH   = 362
BSTAR          = .85461056E-4
MEAN_MOTION_DOT = .69E-6
MEAN_MOTION_DDOT = 0

CCSDS_OMM_VERS = 2.0
CREATION_DATE  = 
ORIGINATOR     = 

OBJECT_NAME    = MR-1
OBJECT_ID      = 2026-015B
CENTER_NAME    = EARTH
REF_FRAME      = TEME
TIME_SYSTEM    = UTC
MEAN_ELEMENT_THEORY = SGP/SGP4

EPOCH          = 2026-02-18T04:26:10.074048
MEAN_MOTION    = 13.52661705
ECCENTRICITY   = .00051221
INCLINATION    = 88.9964
RA_OF_ASC_NODE = 280.6463
ARG_OF_PERICENTER = 72.1770
MEAN_ANOMALY   = 287.9940

EPHEMERIS_TYPE = 0
CLASSIFICATION_TYPE = U
NORAD_CAT_ID   = 67557
ELEMENT_SET_NO = 999
REV_AT_EPOCH   = 362
BSTAR          = .89625305E-4
MEAN_MOTION_DOT = .71E-6
MEAN_MOTION_DDOT = 0

